EXO-0                   
1 59175U 23174DK  26068.71046781  .00011582  00000+0  36716-3 0  9992
2 59175  97.3864 148.9039 0009878 157.1125 203.0559 15.32821991129797
STARLINK-34240          
1 64265U 25120K   26068.51080493  .00030138  00000+0  10258-2 0  9997
2 64265  53.1594 117.8863 0001349  70.2304 289.8842 15.30192145 43884
